<?xml version="1.0" encoding="utf-8"?>
<kml xmlns="http://www.opengis.net/kml/2.2">
  <Document>
    <name>MultiGeometry - linestrings</name>
    <open>1</open>
    <Style id="bangormarina">
      <LineStyle>
        <color>ff0000ff</color>
        <width>3</width>
      </LineStyle>
    </Style>
    <Folder>
      <open>1</open>
      <Placemark>
        <name>MultiGeometry</name>
        <description>Many LineStrings grouped into one MultiGeometry - Updated with 100km minimum length and 50km spacing</description>
        <styleUrl>#bangormarina</styleUrl>
        <MultiGeometry>
          <LineString>
            <tessellate>1</tessellate>
            <coordinates>
              -5.670104418698614,54.66484515395317,0
              -5.670104418698614,55.56484515395317,0
            </coordinates>
          </LineString>
          <LineString>
            <tessellate>1</tessellate>
            <coordinates>
              -4.789104418698614,54.66484515395317,0
              -4.789104418698614,55.56484515395317,0
            </coordinates>
          </LineString>
          <LineString>
            <tessellate>1</tessellate>
            <coordinates>
              -5.670104418698614,55.11484515395317,0
              -5.670104418698614,56.01484515395317,0
            </coordinates>
          </LineString>
          <LineString>
            <tessellate>1</tessellate>
            <coordinates>
              -4.789104418698614,55.11484515395317,0
              -4.789104418698614,56.01484515395317,0
            </coordinates>
          </LineString>
          <LineString>
            <tessellate>1</tessellate>
            <coordinates>
              -5.670104418698614,55.56484515395317,0
              -5.670104418698614,56.46484515395317,0
            </coordinates>
          </LineString>
          <LineString>
            <tessellate>1</tessellate>
            <coordinates>
              -4.789104418698614,55.56484515395317,0
              -4.789104418698614,56.46484515395317,0
            </coordinates>
          </LineString>
          <LineString>
            <tessellate>1</tessellate>
            <coordinates>
              -5.670104418698614,54.66484515395317,0
              -4.870104418698614,54.66484515395317,0
            </coordinates>
          </LineString>
          <LineString>
            <tessellate>1</tessellate>
            <coordinates>
              -5.670104418698614,54.88984515395317,0
              -4.870104418698614,54.88984515395317,0
            </coordinates>
          </LineString>
          <LineString>
            <tessellate>1</tessellate>
            <coordinates>
              -5.670104418698614,55.11484515395317,0
              -4.870104418698614,55.11484515395317,0
            </coordinates>
          </LineString>
          <LineString>
            <tessellate>1</tessellate>
            <coordinates>
              -5.670104418698614,55.33984515395317,0
              -4.870104418698614,55.33984515395317,0
            </coordinates>
          </LineString>
        </MultiGeometry>
      </Placemark>
    </Folder>
  </Document>
</kml>